STARLINK-5109           
1 54002U 22125AQ  26068.66819291 -.00004119  00000+0 -24083-3 0  9993
2 54002  53.2175 203.9515 0001434  94.0784 266.0372 15.08845553189609
LEMUR-2-AHMED-ASRAR     
1 60576U 24149DN  26068.73265438  .00013045  00000+0  79773-3 0  9992
2 60576  97.7021 152.9847 0001633  18.5035 341.6253 15.10376432 85541
